CCSDS_OMM_VERS = 2.0
CREATION_DATE  = 
ORIGINATOR     = 

OBJECT_NAME    = SL-16 R/B
OBJECT_ID      = 1993-016B
CENTER_NAME    = EARTH
REF_FRAME      = TEME
TIME_SYSTEM    = UTC
MEAN_ELEMENT_THEORY = SGP/SGP4

EPOCH          = 2026-01-19T12:25:38.107488
MEAN_MOTION    = 14.15293707
ECCENTRICITY   = .00089484
INCLINATION    = 71.0088
RA_OF_ASC_NODE = 318.4587
ARG_OF_PERICENTER = 26.9029
MEAN_ANOMALY   = 333.2556

EPHEMERIS_TYPE = 0
CLASSIFICATION_TYPE = U
NORAD_CAT_ID   = 22566
ELEMENT_SET_NO = 999
REV_AT_EPOCH   = 69521
BSTAR          = .72304659E-4
MEAN_MOTION_DOT = .93E-6
MEAN_MOTION_DDOT = 0

CCSDS_OMM_VERS = 2.0
CREATION_DATE  = 
ORIGINATOR     = 

OBJECT_NAME    = COSMOS 2242
OBJECT_ID      = 1993-024A
CENTER_NAME    = EARTH
REF_FRAME      = TEME
TIME_SYSTEM    = UTC
MEAN_ELEMENT_THEORY = SGP/SGP4

EPOCH          = 2026-01-19T13:19:57.372096
MEAN_MOTION    = 14.96291000
ECCENTRICITY   = .0017923
INCLINATION    = 82.5210
RA_OF_ASC_NODE = 313.6993
ARG_OF_PERICENTER = 108.0083
MEAN_ANOMALY   = 252.3095

EPHEMERIS_TYPE = 0
CLASSIFICATION_TYPE = U
NORAD_CAT_ID   = 22626
ELEMENT_SET_NO = 999
REV_AT_EPOCH   = 77304
BSTAR          = .18270204E-3
MEAN_MOTION_DOT = .2096E-4
MEAN_MOTION_DDOT = 0

CCSDS_OMM_VERS = 2.0
CREATION_DATE  = 
ORIGINATOR     = 

OBJECT_NAME    = SL-16 R/B
OBJECT_ID      = 1993-059B
CENTER_NAME    = EARTH
REF_FRAME      = TEME
TIME_SYSTEM    = UTC
MEAN_ELEMENT_THEORY = SGP/SGP4

EPOCH          = 2026-01-19T15:13:46.531776
MEAN_MOTION    = 14.17222894
ECCENTRICITY   = .00195135
INCLINATION    = 70.9909
RA_OF_ASC_NODE = 114.5777
ARG_OF_PERICENTER = 283.2299
MEAN_ANOMALY   = 76.6647

EPHEMERIS_TYPE = 0
CLASSIFICATION_TYPE = U
NORAD_CAT_ID   = 22803
ELEMENT_SET_NO = 999
REV_AT_EPOCH   = 67258
BSTAR          = .63223191E-4
MEAN_MOTION_DOT = .8E-6
MEAN_MOTION_DDOT = 0

CCSDS_OMM_VERS = 2.0
CREATION_DATE  = 
ORIGINATOR     = 

OBJECT_NAME    = ARIANE 40 R/B
OBJECT_ID      = 1993-061H
CENTER_NAME    = EARTH
REF_FRAME      = TEME
TIME_SYSTEM    = UTC
MEAN_ELEMENT_THEORY = SGP/SGP4

EPOCH          = 2026-01-19T14:34:29.902656
MEAN_MOTION    = 14.32827814
ECCENTRICITY   = .00117033
INCLINATION    = 98.5017
RA_OF_ASC_NODE = 89.4383
ARG_OF_PERICENTER = 72.2966
MEAN_ANOMALY   = 287.9494

EPHEMERIS_TYPE = 0
CLASSIFICATION_TYPE = U
NORAD_CAT_ID   = 22830
ELEMENT_SET_NO = 999
REV_AT_EPOCH   = 68707
BSTAR          = .90622568E-4
MEAN_MOTION_DOT = .204E-5
MEAN_MOTION_DDOT = 0

CCSDS_OMM_VERS = 2.0
CREATION_DATE  = 
ORIGINATOR     = 

OBJECT_NAME    = COSMOS 2278
OBJECT_ID      = 1994-023A
CENTER_NAME    = EARTH
REF_FRAME      = TEME
TIME_SYSTEM    = UTC
MEAN_ELEMENT_THEORY = SGP/SGP4

EPOCH          = 2026-01-19T03:52:35.967360
MEAN_MOTION    = 14.14365514
ECCENTRICITY   = .00064623
INCLINATION    = 71.0544
RA_OF_ASC_NODE = 278.7193
ARG_OF_PERICENTER = 109.1709
MEAN_ANOMALY   = 251.0114

EPHEMERIS_TYPE = 0
CLASSIFICATION_TYPE = U
NORAD_CAT_ID   = 23087
ELEMENT_SET_NO = 999
REV_AT_EPOCH   = 63780
BSTAR          = .49014339E-4
MEAN_MOTION_DOT = .47E-6
MEAN_MOTION_DDOT = 0

CCSDS_OMM_VERS = 2.0
CREATION_DATE  = 
ORIGINATOR     = 

OBJECT_NAME    = SL-16 R/B
OBJECT_ID      = 1994-023B
CENTER_NAME    = EARTH
REF_FRAME      = TEME
TIME_SYSTEM    = UTC
MEAN_ELEMENT_THEORY = SGP/SGP4

EPOCH          = 2026-01-19T15:42:39.549024
MEAN_MOTION    = 14.15006595
ECCENTRICITY   = .00037233
INCLINATION    = 70.9997
RA_OF_ASC_NODE = 173.8634
ARG_OF_PERICENTER = 332.4363
MEAN_ANOMALY   = 27.6561

EPHEMERIS_TYPE = 0
CLASSIFICATION_TYPE = U
NORAD_CAT_ID   = 23088
ELEMENT_SET_NO = 999
REV_AT_EPOCH   = 63915
BSTAR          = .24282585E-4
MEAN_MOTION_DOT = -.1E-7
MEAN_MOTION_DDOT = 0

CCSDS_OMM_VERS = 2.0
CREATION_DATE  = 
ORIGINATOR     = 

OBJECT_NAME    = SL-16 R/B
OBJECT_ID      = 1994-074B
CENTER_NAME    = EARTH
REF_FRAME      = TEME
TIME_SYSTEM    = UTC
MEAN_ELEMENT_THEORY = SGP/SGP4

EPOCH          = 2026-01-19T15:08:20.433120
MEAN_MOTION    = 14.79337866
ECCENTRICITY   = .00072578
INCLINATION    = 97.7166
RA_OF_ASC_NODE = 52.4229
ARG_OF_PERICENTER = 32.1694
MEAN_ANOMALY   = 80.9324

EPHEMERIS_TYPE = 0
CLASSIFICATION_TYPE = U
NORAD_CAT_ID   = 23343
ELEMENT_SET_NO = 999
REV_AT_EPOCH   = 67999
BSTAR          = .67643234E-4
MEAN_MOTION_DOT = .454E-5
MEAN_MOTION_DDOT = 0

CCSDS_OMM_VERS = 2.0
CREATION_DATE  = 
ORIGINATOR     = 

OBJECT_NAME    = SL-16 R/B
OBJECT_ID      = 1994-077B
CENTER_NAME    = EARTH
REF_FRAME      = TEME
TIME_SYSTEM    = UTC
MEAN_ELEMENT_THEORY = SGP/SGP4

EPOCH          = 2026-01-19T14:01:59.845152
MEAN_MOTION    = 14.15557396
ECCENTRICITY   = .00048348
INCLINATION    = 70.9834
RA_OF_ASC_NODE = 95.7992
ARG_OF_PERICENTER = 254.8995
MEAN_ANOMALY   = 105.1593

EPHEMERIS_TYPE = 0
CLASSIFICATION_TYPE = U
NORAD_CAT_ID   = 23405
ELEMENT_SET_NO = 999
REV_AT_EPOCH   = 60928
BSTAR          = .82732805E-4
MEAN_MOTION_DOT = .114E-5
MEAN_MOTION_DDOT = 0

CCSDS_OMM_VERS = 2.0
CREATION_DATE  = 
ORIGINATOR     = 

OBJECT_NAME    = ARIANE 40+ R/B
OBJECT_ID      = 1995-021B
CENTER_NAME    = EARTH
REF_FRAME      = TEME
TIME_SYSTEM    = UTC
MEAN_ELEMENT_THEORY = SGP/SGP4

EPOCH          = 2026-01-19T04:32:13.197696
MEAN_MOTION    = 14.39726985
ECCENTRICITY   = .00057031
INCLINATION    = 98.4596
RA_OF_ASC_NODE = 91.3174
ARG_OF_PERICENTER = 293.2564
MEAN_ANOMALY   = 90.3622

EPHEMERIS_TYPE = 0
CLASSIFICATION_TYPE = U
NORAD_CAT_ID   = 23561
ELEMENT_SET_NO = 999
REV_AT_EPOCH   = 61212
BSTAR          = .99241503E-4
MEAN_MOTION_DOT = .267E-5
MEAN_MOTION_DDOT = 0

CCSDS_OMM_VERS = 2.0
CREATION_DATE  = 
ORIGINATOR     = 

OBJECT_NAME    = SL-16 R/B
OBJECT_ID      = 1995-058B
CENTER_NAME    = EARTH
REF_FRAME      = TEME
TIME_SYSTEM    = UTC
MEAN_ELEMENT_THEORY = SGP/SGP4

EPOCH          = 2026-01-19T10:45:01.263456
MEAN_MOTION    = 14.15489598
ECCENTRICITY   = .00134337
INCLINATION    = 71.0220
RA_OF_ASC_NODE = 283.6378
ARG_OF_PERICENTER = 205.1520
MEAN_ANOMALY   = 154.8950

EPHEMERIS_TYPE = 0
CLASSIFICATION_TYPE = U
NORAD_CAT_ID   = 23705
ELEMENT_SET_NO = 999
REV_AT_EPOCH   = 56088
BSTAR          = -.62878819E-4
MEAN_MOTION_DOT = -.171E-5
MEAN_MOTION_DDOT = 0

CCSDS_OMM_VERS = 2.0
CREATION_DATE  = 
ORIGINATOR     = 

OBJECT_NAME    = SL-16 R/B
OBJECT_ID      = 1996-051B
CENTER_NAME    = EARTH
REF_FRAME      = TEME
TIME_SYSTEM    = UTC
MEAN_ELEMENT_THEORY = SGP/SGP4

EPOCH          = 2026-01-19T10:46:54.773184
MEAN_MOTION    = 14.12401516
ECCENTRICITY   = .00187991
INCLINATION    = 70.7589
RA_OF_ASC_NODE = 279.4655
ARG_OF_PERICENTER = 214.8457
MEAN_ANOMALY   = 145.1433

EPHEMERIS_TYPE = 0
CLASSIFICATION_TYPE = U
NORAD_CAT_ID   = 24298
ELEMENT_SET_NO = 999
REV_AT_EPOCH   = 51469
BSTAR          = .48073288E-4
MEAN_MOTION_DOT = .4E-6
MEAN_MOTION_DDOT = 0

CCSDS_OMM_VERS = 2.0
CREATION_DATE  = 
ORIGINATOR     = 

OBJECT_NAME    = ORBVIEW 2 (SEASTAR)
OBJECT_ID      = 1997-037A
CENTER_NAME    = EARTH
REF_FRAME      = TEME
TIME_SYSTEM    = UTC
MEAN_ELEMENT_THEORY = SGP/SGP4

EPOCH          = 2026-01-19T09:59:56.984064
MEAN_MOTION    = 14.35448332
ECCENTRICITY   = .00020586
INCLINATION    = 98.8485
RA_OF_ASC_NODE = 182.4464
ARG_OF_PERICENTER = 180.0819
MEAN_ANOMALY   = 180.0366

EPHEMERIS_TYPE = 0
CLASSIFICATION_TYPE = U
NORAD_CAT_ID   = 24883
ELEMENT_SET_NO = 999
REV_AT_EPOCH   = 50140
BSTAR          = .12005192E-3
MEAN_MOTION_DOT = .298E-5
MEAN_MOTION_DDOT = 0

