SL-16 R/B               
1 22566U 93016B   26019.51780217  .00000093  00000+0  72305-4 0  9991
2 22566  71.0088 318.4587 0008948  26.9029 333.2556 14.15293707695219
COSMOS 2242             
1 22626U 93024A   26019.55552514  .00002096  00000+0  18270-3 0  9993
2 22626  82.5210 313.6993 0017923 108.0083 252.3095 14.96291000773043
SL-16 R/B               
1 22803U 93059B   26019.63456634  .00000080  00000+0  63223-4 0  9993
2 22803  70.9909 114.5777 0019513 283.2299  76.6647 14.17222894672581
ARIANE 40 R/B           
1 22830U 93061H   26019.60729054  .00000204  00000+0  90623-4 0  9994
2 22830  98.5017  89.4383 0011703  72.2966 287.9494 14.32827814687077
COSMOS 2278             
1 23087U 94023A   26019.16152740  .00000047  00000+0  49014-4 0  9994
2 23087  71.0544 278.7193 0006462 109.1709 251.0114 14.14365514637807
SL-16 R/B               
1 23088U 94023B   26019.65462441 -.00000001  00000+0  24283-4 0  9993
2 23088  70.9997 173.8634 0003723 332.4363  27.6561 14.15006595639152
SL-16 R/B               
1 23343U 94074B   26019.63079205  .00000454  00000+0  67643-4 0  9991
2 23343  97.7166  52.4229 0007257  32.1694  80.9324 14.79337866679993
SL-16 R/B               
1 23405U 94077B   26019.58472043  .00000114  00000+0  82733-4 0  9994
2 23405  70.9834  95.7992 0004834 254.8995 105.1593 14.15557396609284
ARIANE 40+ R/B          
1 23561U 95021B   26019.18904164  .00000267  00000+0  99242-4 0  9999
2 23561  98.4596  91.3174 0005703 293.2564  90.3622 14.39726985612129
SL-16 R/B               
1 23705U 95058B   26019.44793129 -.00000171  00000+0 -62879-4 0  9997
2 23705  71.0220 283.6378 0013433 205.1520 154.8950 14.15489598560880
SL-16 R/B               
1 24298U 96051B   26019.44924506  .00000040  00000+0  48073-4 0  9997
2 24298  70.7589 279.4655 0018799 214.8457 145.1433 14.12401516514697
ORBVIEW 2 (SEASTAR)     
1 24883U 97037A   26019.41663176  .00000298  00000+0  12005-3 0  9992
2 24883  98.8485 182.4464 0002058 180.0819 180.0366 14.35448332501401
